norad_id,name,regime,epoch,line1,line2,inclination,eccentricity,mean_motion,raan,arg_pericenter,mean_anomaly
25049,SIRIUS 2 (GE-1E),GEO,09339.82181761,1 25049U 97071A   09339.82181761 -.00000192  00000-0  10000-3 0  7784\,2 25049 000.9266 080.7524 0002434 170.7484 108.4889 00.99409212 44197,0.9266,0.0002434,0.99409212,80.7524,170.7484,108.4889
25049,SIRIUS 2 (GE-1E),GEO,09348.87514365,1 25049U 97071A   09348.87514365 -.00000252  00000-0  10000-3 0  7797\,2 25049 000.9472 080.6137 0002685 186.8202 092.5299 00.99407598 44282,0.9472,0.0002685,0.99407598,80.6137,186.8202,92.5299
25049,SIRIUS 2 (GE-1E),GEO,09350.88704902,1 25049U 97071A   09350.88704902 -.00000246  00000-0  10000-3 0  7804\,2 25049 000.9552 080.6131 0002702 181.8656 097.4960 00.99406922 44305,0.9552,0.0002702,0.99406922,80.6131,181.8656,97.496
25049,SIRIUS 2 (GE-1E),GEO,09351.89298430,1 25049U 97071A   09351.89298430 -.00000239 +00000-0 +10000-3 0 07813\,2 25049 000.9582 080.6075 0002971 179.8819 099.4836 00.99406569044313,0.9582,0.0002971,0.99406569,80.6075,179.8819,99.4836
25049,SIRIUS 2 (GE-1E),GEO,09352.89891979,1 25049U 97071A   09352.89891979 -.00000231  00000-0  10000-3 0  7813\,2 25049 000.9613 080.5952 0002640 176.2589 103.1181 00.99406215 44324,0.9613,0.000264,0.99406215,80.5952,176.2589,103.1181
25049,SIRIUS 2 (GE-1E),GEO,09354.91083728,1 25049U 97071A   09354.91083728 -.00000208  00000-0  10000-3 0  7828\,2 25049 000.9658 080.5620 0003088 180.1759 099.2300 00.99405435 44348,0.9658,0.0003088,0.99405435,80.562,180.1759,99.23
25049,SIRIUS 2 (GE-1E),GEO,09356.92277740,1 25049U 97071A   09356.92277740 -.00000178  00000-0  10000-3 0  7837\,2 25049 000.9709 080.5299 0003096 180.2853 099.1559 00.99404681 44361,0.9709,0.0003096,0.99404681,80.5299,180.2853,99.1559
25049,SIRIUS 2 (GE-1E),GEO,09360.94667588,1 25049U 97071A   09360.94667588 -.00000111 +00000-0 +10000-3 0 07856\,2 25049 000.9811 080.4536 0003637 187.9481 091.5676 00.99403336044407,0.9811,0.0003637,0.99403336,80.4536,187.9481,91.5676
25049,SIRIUS 2 (GE-1E),GEO,09360.94669567,1 25049U 97071A   09360.94669567 -.00000111  00000-0  10000-3 0  7844\,2 25049 000.9807 080.4615 0003554 187.2824 092.2329 00.99403337 44406,0.9807,0.0003554,0.99403337,80.4615,187.2824,92.2329
25049,SIRIUS 2 (GE-1E),GEO,09361.95265565,1 25049U 97071A   09361.95265565 -.00000095 +00000-0 +10000-3 0 07869\,2 25049 000.9837 080.4416 0003955 190.1155 089.4069 00.99403036044419,0.9837,0.0003955,0.99403036,80.4416,190.1155,89.4069
25049,SIRIUS 2 (GE-1E),GEO,09365.97657586,1 25049U 97071A   09365.97657586 -.00000039 +00000-0 +10000-3 0 07872\,2 25049 000.9943 080.3936 0004221 191.1878 088.3656 00.99402163044457,0.9943,0.0004221,0.99402163,80.3936,191.1878,88.3656
25049,SIRIUS 2 (GE-1E),GEO,09365.97658024,1 25049U 97071A   09365.97658024 -.00000040  00000-0  10000-3 0  7861\,2 25049 000.9937 080.4010 0004015 190.3173 089.2326 00.99402171 44457,0.9937,0.0004015,0.99402171,80.401,190.3173,89.2326
25049,SIRIUS 2 (GE-1E),GEO,10001.98256126,1 25049U 97071A   10001.98256126 -.00000025 +00000-0 +10000-3 0 07883\,2 25049 000.9969 080.3808 0004408 192.3620 087.1983 00.99402021044462,0.9969,0.0004408,0.99402021,80.3808,192.362,87.1983
25049,SIRIUS 2 (GE-1E),GEO,10002.98855033,1 25049U 97071A   10002.98855033 -.00000011 +00000-0 +10000-3 0 07881\,2 25049 000.9994 080.3750 0005048 210.7304 068.8211 00.99401970044474,0.9994,0.0005048,0.9940197,80.375,210.7304,68.8211
25049,SIRIUS 2 (GE-1E),GEO,10003.99456503,1 25049U 97071A   10003.99456503  .00000004  00000-0  10000-3 0  7894\,2 25049 001.0019 080.3646 0004534 196.6758 082.9012 00.99401873 44481,1.0019,0.0004534,0.99401873,80.3646,196.6758,82.9012
25049,SIRIUS 2 (GE-1E),GEO,10005.22294196,1 25049U 97071A   10005.22294196 +.00000023 +00000-0 +10000-3 0 07914\,2 25049 001.0059 080.3777 0004305 196.9729 162.1673 00.99401836044491,1.0059,0.0004305,0.99401836,80.3777,196.9729,162.1673
25049,SIRIUS 2 (GE-1E),GEO,10006.22904096,1 25049U 97071A   10006.22904096  .00000039  00000-0  10000-3 0  7908\,2 25049 001.0083 080.3618 0004645 205.9513 153.2344 00.99401883 44501,1.0083,0.0004645,0.99401883,80.3618,205.9513,153.2344
25049,SIRIUS 2 (GE-1E),GEO,10007.23490441,1 25049U 97071A   10007.23490441  .00000053  00000-0  10000-3 0  7911\,2 25049 001.0110 080.3480 0004997 209.6873 149.4571 00.99401925 44516,1.011,0.0004997,0.99401925,80.348,209.6873,149.4571
25049,SIRIUS 2 (GE-1E),GEO,10007.23490801,1 25049U 97071A   10007.23490801 +.00000053 +00000-0 +10000-3 0 07922\,2 25049 001.0110 080.3489 0004976 209.5373 149.6075 00.99401924044516,1.011,0.0004976,0.99401924,80.3489,209.5373,149.6075
25049,SIRIUS 2 (GE-1E),GEO,10009.24645249,1 25049U 97071A   10009.24645249  .00000077  00000-0  10000-3 0  7929\,2 25049 001.0160 080.3217 0005072 209.9245 149.0860 00.99402176 44538,1.016,0.0005072,0.99402176,80.3217,209.9245,149.086
25049,SIRIUS 2 (GE-1E),GEO,10010.25224513,1 25049U 97071A   10010.25224513 +.00000086 +00000-0 +10000-3 0 07930\,2 25049 001.0187 080.3044 0005189 210.0154 148.9391 00.99402357044545,1.0187,0.0005189,0.99402357,80.3044,210.0154,148.9391
25049,SIRIUS 2 (GE-1E),GEO,10011.25812082,1 25049U 97071A   10011.25812082 +.00000093 +00000-0 +10000-3 0 07944\,2 25049 001.0213 080.2911 0005189 210.2585 148.6661 00.99402571044553,1.0213,0.0005189,0.99402571,80.2911,210.2585,148.6661
25049,SIRIUS 2 (GE-1E),GEO,10011.25812110,1 25049U 97071A   10011.25812110  .00000093  00000-0  10000-3 0  7935\,2 25049 001.0213 080.2899 0005254 210.1857 148.7408 00.99402576 44557,1.0213,0.0005254,0.99402576,80.2899,210.1857,148.7408
25049,SIRIUS 2 (GE-1E),GEO,10013.27024602,1 25049U 97071A   10013.27024602  .00000102  00000-0  10000-3 0  7942\,2 25049 001.0261 080.2632 0005263 210.3902 148.6153 00.99403124 44576,1.0261,0.0005263,0.99403124,80.2632,210.3902,148.6153
25049,SIRIUS 2 (GE-1E),GEO,10014.27646018,1 25049U 97071A   10014.27646018 +.00000104 +00000-0 +10000-3 0 07957\,2 25049 001.0287 080.2449 0005086 209.4033 149.7028 00.99403442044584,1.0287,0.0005086,0.99403442,80.2449,209.4033,149.7028
25049,SIRIUS 2 (GE-1E),GEO,10015.28273439,1 25049U 97071A   10015.28273439  .00000104  00000-0  10000-3 0  7952\,2 25049 001.0311 080.2312 0005076 209.6273 149.5976 00.99403794 44599,1.0311,0.0005076,0.99403794,80.2312,209.6273,149.5976
25049,SIRIUS 2 (GE-1E),GEO,10016.28904678,1 25049U 97071A   10016.28904678 +.00000103 +00000-0 +10000-3 0 07970\,2 25049 001.0336 080.2218 0005291 211.0251 148.3289 00.99404176044604,1.0336,0.0005291,0.99404176,80.2218,211.0251,148.3289
25049,SIRIUS 2 (GE-1E),GEO,10017.29533349,1 25049U 97071A   10017.29533349 +.00000100 +00000-0 +10000-3 0 07972\,2 25049 001.0360 080.2081 0005586 220.9284 138.5436 00.99404585044611,1.036,0.0005586,0.99404585,80.2081,220.9284,138.5436
25049,SIRIUS 2 (GE-1E),GEO,10017.29533693,1 25049U 97071A   10017.29533693  .00000100  00000-0  10000-3 0  7963\,2 25049 001.0360 080.2094 0005614 219.0262 140.4479 00.99404591 44618,1.036,0.0005614,0.99404591,80.2094,219.0262,140.4479
25049,SIRIUS 2 (GE-1E),GEO,10018.30156684,1 25049U 97071A   10018.30156684 +.00000095 +00000-0 +10000-3 0 07982\,2 25049 001.0384 080.1946 0005575 220.9787 138.6018 00.99405002044625,1.0384,0.0005575,0.99405002,80.1946,220.9787,138.6018
25049,SIRIUS 2 (GE-1E),GEO,10020.31376456,1 25049U 97071A   10020.31376456  .00000078  00000-0  10000-3 0  7977\,2 25049 001.0433 080.1678 0005540 220.8067 138.8991 00.99405869 44649,1.0433,0.000554,0.99405869,80.1678,220.8067,138.8991
25049,SIRIUS 2 (GE-1E),GEO,10020.31376465,1 25049U 97071A   10020.31376465 +.00000078 +00000-0 +10000-3 0 07988\,2 25049 001.0433 080.1685 0005538 220.8211 138.8840 00.99405869044648,1.0433,0.0005538,0.99405869,80.1685,220.8211,138.884
25049,SIRIUS 2 (GE-1E),GEO,10021.31969926,1 25049U 97071A   10021.31969926 +.00000065 +00000-0 +10000-3 0 07996\,2 25049 001.0457 080.1549 0005596 221.7602 137.9504 00.99406312044653,1.0457,0.0005596,0.99406312,80.1549,221.7602,137.9504
25049,SIRIUS 2 (GE-1E),GEO,10023.33129081,1 25049U 97071A   10023.33129081 +.00000032 +00000-0 +10000-3 0 07994\,2 25049 001.0505 080.1288 0005632 222.3814 137.2462 00.99407191044674,1.0505,0.0005632,0.99407191,80.1288,222.3814,137.2462
25049,SIRIUS 2 (GE-1E),GEO,10023.33129708,1 25049U 97071A   10023.33129708  .00000032  00000-0  10000-3 0  7989\,2 25049 001.0505 080.1279 0005618 222.3789 137.2516 00.99407190 44678,1.0505,0.0005618,0.9940719,80.1279,222.3789,137.2516
25049,SIRIUS 2 (GE-1E),GEO,10024.33704271,1 25049U 97071A   10024.33704271 +.00000011 +00000-0 +10000-3 0 08016\,2 25049 001.0529 080.1172 0005648 222.5851 136.9863 00.99407617044687,1.0529,0.0005648,0.99407617,80.1172,222.5851,136.9863
25049,SIRIUS 2 (GE-1E),GEO,10026.34874082,1 25049U 97071A   10026.34874082 -.00000038  00000-0  10000-3 0  7993\,2 25049 001.0578 080.0908 0005669 222.8655 136.6700 00.99408406 44702,1.0578,0.0005669,0.99408406,80.0908,222.8655,136.67
25049,SIRIUS 2 (GE-1E),GEO,10029.36719731,1 25049U 97071A   10029.36719731 -.00000120  00000-0  10000-3 0  8002\,2 25049 001.0651 080.0513 0005673 223.0058 136.8115 00.99409376 44733,1.0651,0.0005673,0.99409376,80.0513,223.0058,136.8115
25049,SIRIUS 2 (GE-1E),GEO,10029.36720841,1 25049U 97071A   10029.36720841 -.00000120 +00000-0 +10000-3 0 08017\,2 25049 001.0652 080.0527 0005714 223.4892 136.3297 00.99409372044737,1.0652,0.0005714,0.99409372,80.0527,223.4892,136.3297
25049,SIRIUS 2 (GE-1E),GEO,10034.39777627,1 25049U 97071A   10034.39777627 -.00000236  00000-0  10000-3 0  8018\,2 25049 001.0774 079.9876 0005619 222.8361 137.3985 00.99410114 44780,1.0774,0.0005619,0.99410114,79.9876,222.8361,137.3985
25049,SIRIUS 2 (GE-1E),GEO,10035.40354087,1 25049U 97071A   10035.40354087 -.00000255 +00000-0 +10000-3 0 08024\,2 25049 001.0798 079.9748 0005697 223.4650 136.7291 00.99410114044792,1.0798,0.0005697,0.99410114,79.9748,223.465,136.7291
